{
    "links": {
        "self": "http://www.neowsapp.com/rest/v1/neo/3803894?api_key=iIulBulltgU6a56xZRHN4H3l9WmuAYTsLGpBGhQ2"
    },
    "id": "3803894",
    "neo_reference_id": "3803894",
    "name": "(2018 HD)",
    "designation": "2018 HD",
    "nasa_jpl_url": "http://ssd.jpl.nasa.gov/sbdb.cgi?sstr=3803894",
    "absolute_magnitude_h": 27.3,
    "estimated_diameter": {
        "kilometers": {
            "estimated_diameter_min": 0.0092162655,
            "estimated_diameter_max": 0.0206081961
        },
        "meters": {
            "estimated_diameter_min": 9.216265485,
            "estimated_diameter_max": 20.6081961232
        },
        "miles": {
            "estimated_diameter_min": 0.0057267201,
            "estimated_diameter_max": 0.0128053354
        },
        "feet": {
            "estimated_diameter_min": 30.2370924539,
            "estimated_diameter_max": 67.6121941689
        }
    },
    "is_potentially_hazardous_asteroid": false,
    "close_approach_data": [
        {
            "close_approach_date": "2018-04-12",
            "close_approach_date_full": "2018-Apr-12 06:47",
            "epoch_date_close_approach": 1523515620000,
            "relative_velocity": {
                "kilometers_per_second": "6.9395131185",
                "kilometers_per_hour": "24982.2472265401",
                "miles_per_hour": "15522.9968947355"
            },
            "miss_distance": {
                "astronomical": "0.0235510511",
                "lunar": "9.1613588779",
                "kilometers": "3523187.080821157",
                "miles": "2189206.9371476866"
            },
            "orbiting_body": "Earth"
        }
    ],
    "orbital_data": {
        "orbit_id": "2",
        "orbit_determination_date": "2018-04-22 06:59:35",
        "first_observation_date": "2018-04-16",
        "last_observation_date": "2018-04-22",
        "data_arc_in_days": 6,
        "observations_used": 21,
        "orbit_uncertainty": "8",
        "minimum_orbit_intersection": ".0214252",
        "jupiter_tisserand_invariant": "3.750",
        "epoch_osculation": "2458226.5",
        "eccentricity": ".4777927901755908",
        "semi_major_axis": "1.941132723510629",
        "inclination": "4.629633278805881",
        "ascending_node_longitude": "206.0049131010033",
        "orbital_period": "987.8278663383376",
        "perihelion_distance": "1.013673503443342",
        "perihelion_argument": "341.2625416937376",
        "aphelion_distance": "2.868591943577916",
        "perihelion_time": "2458208.433914671007",
        "mean_anomaly": "6.583931209134253",
        "mean_motion": ".3644359632558671",
        "equinox": "J2000",
        "orbit_class": {
            "orbit_class_type": "APO",
            "orbit_class_description": "Near-Earth asteroid orbits which cross the Earth’s orbit similar to that of 1862 Apollo",
            "orbit_class_range": "a (semi-major axis) > 1.0 AU; q (perihelion) < 1.017 AU"
        }
    },
    "is_sentry_object": false
}